satname,norad_id,inclination_deg,eccentricity,mean_motion_rev_per_day,perigee_km,apogee_km,l1,l2
STARLINK-1331,45578,53.0534,0.000129,15.06347323,546.4796192699332,548.2664008525289,1 45578U 20025AZ  25317.81073975  .00023351  00000+0  15836-2 0  9994,2 45578  53.0534 236.8193 0001290  88.5317 271.5820 15.06347323308052
STARLINK-1333,45580,53.0538,0.000124,15.06351338,546.5019422593296,548.2194656899146,1 45580U 20025BB  25317.81718747 -.00008316  00000+0 -54076-3 0  9996,2 45580  53.0538 246.7860 0001240  84.6346 275.4785 15.06351338307901
STARLINK-1335,45581,53.0543,0.0001777,15.06391322,546.0075157210758,548.4687940511221,1 45581U 20025BC  25317.09194433  .00004217  00000+0  30187-3 0  9998,2 45581  53.0543 240.0472 0001777  90.9821 269.1371 15.06391322307938
STARLINK-1337,45582,53.0535,0.0001251,15.06357151,546.4765095310304,548.2092645987741,1 45582U 20025BD  25317.77756738  .00026532  00000+0  17955-2 0  9997,2 45582  53.0535 236.9689 0001251  90.5041 269.6091 15.06357151308039
STARLINK-1347,45586,53.0519,0.0009016,15.33695209,458.6292387971007,470.96842068528895,1 45586U 20025BH  25317.75631529  .00030239  00000+0  92177-3 0  9998,2 45586  53.0519 220.1298 0009016  62.2231 297.9683 15.33695209308265
STARLINK-1360,45588,53.0412,0.0003187,15.78897398,331.42448342001717,335.7025213202278,1 45588U 20025BK  25317.91670139  .00274245  00000+0  14759-2 0  9994,2 45588  53.0412 133.7033 0003187 184.7913 322.6083 15.78897398  6037
STARLINK-1364,45589,53.053,0.0001168,15.06348604,546.5601846440995,548.1779828652643,1 45589U 20025BL  25317.78125286  .00017469  00000+0  11904-2 0  9990,2 45589  53.0530 236.9555 0001168  94.3752 265.7370 15.06348604308031
STARLINK-1365,45590,53.0545,0.0001694,15.06384668,546.0853867026708,548.4317107145735,1 45590U 20025BM  25317.86325420 -.00002830  00000+0 -17122-3 0  9990,2 45590  53.0545 266.5812 0001694  91.7628 268.3555 15.06384668307641
STARLINK-1443,45660,53.0542,0.0001467,15.06328506,546.4147046383487,548.4466661972501,1 45660U 20035D   25317.78216410  .00033828  00000+0  22834-2 0  9992,2 45660  53.0542 226.9500 0001467  95.0817 265.0340 15.06328506301262
STARLINK-1446,45663,53.0243,0.0002437,15.34789495,459.8789931111123,463.21265451943964,1 45663U 20035G   25317.61365178  .00035467  00000+0  10428-2 0  9990,2 45663  53.0243 188.0076 0002437  91.3184 268.8096 15.34789495301799
STARLINK-1448,45665,53.0539,0.0001463,15.06365316,546.3046673962872,548.3310554887457,1 45665U 20035J   25317.05602173 -.00028836  00000+0 -19266-2 0  9992,2 45665  53.0539 230.2057 0001463  84.6028 275.5128 15.06365316301149
STARLINK-1451,45668,53.0533,0.0001601,15.06364206,546.2124976972918,548.4300294332861,1 45668U 20035M   25317.85592345 -.00006579  00000+0 -42361-3 0  9995,2 45668  53.0533 226.9352 0001601  92.8880 267.2292 15.06364206301278
STARLINK-1452,45669,53.0361,0.0012494,15.27911632,473.4851246980961,490.6273755915581,1 45669U 20035N   25317.12481365  .00038269  00000+0  13888-2 0  9995,2 45669  53.0361 209.3212 0012494  65.0752 295.1543 15.27911632301453
STARLINK-1453,45670,53.0535,0.0001156,15.06378301,546.4774850650738,548.0786410276505,1 45670U 20035P   25317.79967292 -.00003791  00000+0 -23586-3 0  9999,2 45670  53.0535 196.8719 0001156  88.5787 271.5335 15.06378301301578
STARLINK-1454,45671,53.053,0.0001206,15.06436357,546.2649476126908,547.9353148087384,1 45671U 20035Q   25317.08181095  .00026664  00000+0  18004-2 0  9991,2 45671  53.0530 230.0944 0001206 102.9450 257.1674 15.06436357301144
STARLINK-1456,45673,53.0547,0.0002168,15.06376949,545.7807759501766,548.7836377182603,1 45673U 20035S   25317.76005170  .00043084  00000+0  28954-2 0  9997,2 45673  53.0547 227.0517 0002168  79.3349 280.7884 15.06376949301266
STARLINK-1457,45674,53.0533,0.000144,15.34829078,460.44332968914114,462.4131244745404,1 45674U 20035T   25317.91670139  .00806777  00000+0  21794-1 0  9998,2 45674  53.0533 224.9554 0001440 101.6678 342.3150 15.34829078  5848
STARLINK-1458,45675,53.0544,0.0002064,15.06394854,545.7979345343592,548.6567249296722,1 45675U 20035U   25317.75634360  .00008628  00000+0  59747-3 0  9997,2 45675  53.0544 227.0630 0002064 105.1364 254.9854 15.06394854301222
STARLINK-1460,45676,53.0544,0.0001247,15.06358989,546.4736469588597,548.2008602377073,1 45676U 20035V   25317.46147973 -.00015390  00000+0 -10177-2 0  9994,2 45676  53.0544 228.3863 0001247  92.6912 267.4220 15.06358989301175
STARLINK-1392,45677,53.053,0.0001407,15.06347964,546.3966263927605,548.3454643567284,1 45677U 20035W   25317.73794139  .00002314  00000+0  17443-3 0  9991,2 45677  53.0530 227.1489 0001407  77.8825 282.2321 15.06347964301255
STARLINK-1394,45679,53.0534,0.0001119,15.06379336,546.499937255503,548.0498444366749,1 45679U 20035Y   25317.73516019  .00014731  00000+0  10063-2 0  9998,2 45679  53.0534 217.1590 0001119  96.5412 263.5704 15.06379336301393
STARLINK-1402,45685,53.0545,0.0003792,15.28153746,478.7305211494013,483.932742159649,1 45685U 20035AE  25317.81982112  .00071280  00000+0  25505-2 0  9994,2 45685  53.0545 207.5714 0003792 118.0956 242.0426 15.28153746301544
STARLINK-1404,45686,53.0538,0.000133,15.06377471,546.3595263973375,548.2016874807832,1 45686U 20035AF  25316.96480116 -.00017527  00000+0 -11613-2 0  9998,2 45686  53.0538 220.6204 0001330 105.6443 254.4692 15.06377471301288
STARLINK-1413,45689,53.053,0.0001579,15.0639488,546.1337350302247,548.3207650603899,1 45689U 20035AJ  25317.11591522  .00016039  00000+0  10933-2 0  9992,2 45689  53.0530 219.9375 0001579  87.3100 272.8070 15.06394880301214
STARLINK-1417,45693,53.0528,0.0001989,15.06396792,545.8439362299159,548.5988437974629,1 45693U 20035AN  25317.44399732  .00015776  00000+0  10757-2 0  9993,2 45693  53.0528 218.4684 0001989  71.7957 288.3249 15.06396792301343
STARLINK-1420,45695,53.0509,0.000217,15.06404922,545.6936753946611,548.6992701218378,1 45695U 20035AQ  25317.37851348 -.00003313  00000+0 -20354-3 0  9994,2 45695  53.0509 198.7499 0002170  87.8059 272.3178 15.06404922301622
STARLINK-1422,45696,53.0536,0.0001045,15.06397908,546.494270030069,547.9416692187206,1 45696U 20035AR  25317.45502300 -.00004714  00000+0 -29784-3 0  9997,2 45696  53.0536 218.4171 0001045 119.4164 240.6929 15.06397908301345
STARLINK-1351,45697,53.0576,2.11e-05,15.06393627,547.0849650675536,547.3772156009663,1 45697U 20035AS  25317.69646539  .00008040  00000+0  55812-3 0  9992,2 45697  53.0576 197.3327 0000211   1.6462 358.4528 15.06393627301678
STARLINK-1398,45699,53.0497,0.000528,15.54361968,400.42697151236916,407.58891657327877,1 45699U 20035AU  25317.91670139  .00110532  00000+0  16411-2 0  9993,2 45699  53.0497 151.5866 0005280 147.2192 296.7552 15.54361968  5869
STARLINK-1400,45700,53.0513,0.0001341,15.06422998,546.2123934877018,548.069753066954,1 45700U 20035AV  25317.80334852  .00017030  00000+0  11587-2 0  9991,2 45700  53.0513 196.8534 0001341  86.9391 273.1751 15.06422998301686
STARLINK-1403,45701,53.0534,0.0001838,15.06358395,546.0661717034991,548.6119767083774,1 45701U 20035AW  25317.70014900 -.00007277  00000+0 -47063-3 0  9993,2 45701  53.0534 197.3167 0001838  89.6874 270.4325 15.06358395301669
STARLINK-1407,45703,53.0396,0.0012418,15.43349187,427.77089786998386,444.6950671585564,1 45703U 20035AY  25317.66668980  .00050900  00000+0  11227-2 0  9994,2 45703  53.0396 152.7359 0012418 104.8417  23.5079 15.43349187  5893
STARLINK-1411,45706,53.0524,0.0002264,15.42676977,436.66915791677457,439.7556009157752,1 45706U 20035BB  25317.07323016  .00057496  00000+0  12980-2 0  9994,2 45706  53.0524 182.7447 0002264 155.9206 204.1905 15.42676977301816
STARLINK-1423,45710,53.0521,0.0001453,15.06374137,546.2845607793888,548.2970901054623,1 45710U 20035BF  25317.65960247 -.00009924  00000+0 -64871-3 0  9998,2 45710  53.0521 197.4996 0001453  77.3662 282.7489 15.06374137301667
STARLINK-1433,45711,53.0524,0.0002757,15.06374906,545.3791287000777,549.1978083034091,1 45711U 20035BG  25317.64117485  .00013493  00000+0  92356-3 0  9999,2 45711  53.0524 197.5817 0002757  82.7813 277.3489 15.06374906301653
STARLINK-1434,45712,53.0474,0.0006998,15.16352553,512.0502477228147,521.7005070462019,1 45712U 20035BH  25317.65421498  .00016641  00000+0  86107-3 0  9998,2 45712  53.0474 192.8071 0006998 103.0653 257.1121 15.16352553301731
STARLINK-1465,45731,53.0553,0.0001521,15.06391045,546.1856541692969,548.2923535496711,1 45731U 20038B   25317.60800435 -.00003334  00000+0 -20511-3 0  9993,2 45731  53.0553  37.7275 0001521  93.2000 266.9163 15.06391045298698
STARLINK-1471,45735,53.0517,8.24e-05,15.41627271,440.744309796828,441.8681540414482,1 45735U 20038F   25317.45828213  .00042702  00000+0  10028-2 0  9995,2 45735  53.0517 335.4952 0000824  74.5619 285.5477 15.41627271299569
STARLINK-1474,45738,53.0357,0.0004366,15.69512596,357.3497063400064,363.23370228461135,1 45738U 20038J   25317.91670139  .00141752  00000+0  11639-2 0  9995,2 45738  53.0357 288.0270 0004366  40.5123 346.6286 15.69512596  6014
STARLINK-1475,45739,53.0466,0.0007069,15.86120227,308.4422199905157,317.9023930881003,1 45739U 20038K   25317.91670139  .00351682  00000+0  13361-2 0  9995,2 45739  53.0466 253.2913 0007069  81.4259 204.8862 15.86120227  5885
STARLINK-1480,45741,53.0542,0.0001371,15.06383074,546.3139617766983,548.212906575749,1 45741U 20038M   25317.52320789  .00024322  00000+0  16468-2 0  9997,2 45741  53.0542  38.1069 0001371  75.8126 284.3015 15.06383074298694
STARLINK-1500,45744,53.0394,0.0001434,15.28341243,479.78703946956557,481.75417417120116,1 45744U 20038Q   25317.45058354  .00044546  00000+0  15954-2 0  9997,2 45744  53.0394  15.2589 0001434 257.9996 102.0842 15.28341243299009
STARLINK-1504,45746,53.0285,0.0001929,15.41521991,440.30119231993376,442.932253306195,1 45746U 20038S   25317.60778448  .00041511  00000+0  97864-3 0  9999,2 45746  53.0285 337.8998 0001929 322.2716  37.8153 15.41521991299535
